HJ-2F                   
1 57519U 23116A   25180.86770530  .00005386  00000+0  23708-3 0  9996
2 57519  97.3853 187.4812 0004034 135.8120 224.3439 15.22255203105174
XRISM                   
1 57800U 23137A   25180.15818349  .00003356  00000+0  20589-3 0  9994
2 57800  31.0014 119.0409 0007956  11.5376 348.5443 15.08197144 99442
VERONIKA                
1 58261U 23174F   25180.74738179  .00138012  00000+0  87291-3 0  9995
2 58261  97.4095 268.2209 0003800 264.1760  95.9072 15.76173885 91850
GRBBETA                 
1 60237U 24128C   25180.89806733  .00002591  00000+0  20264-3 0  9998
2 60237  61.9922   8.7066 0053400  62.1382 298.5104 15.02780874 53256
2024-149A               
1 60468U 24149A   25180.72204575  .00004951  00000+0  19803-3 0  9994
2 60468  97.4067 257.9801 0004674  52.7395 307.4268 15.25544290 48192
WARATAH SEED-1          
1 60469U 24149B   25180.82431559  .00005578  00000+0  22134-3 0  9997
2 60469  97.4043 258.0887 0003473  64.3994 295.7603 15.25759243 48214
PHISAT 2                
1 60470U 24149C   25180.68270167  .00003589  00000+0  14862-3 0  9998
2 60470  97.4096 257.8505 0003057  72.9072 287.2501 15.24569077 48179
LEMUR-2-TOMATOKECHUP    
1 60471U 24149D   25180.73927760  .00004870  00000+0  18600-3 0  9991
2 60471  97.4120 258.6291 0003305  75.4624 284.6981 15.27097063 48229
CONNECTA IOT-1          
1 60472U 24149E   25180.79455256  .00002703  00000+0  11784-3 0  9993
2 60472  97.4105 257.5730 0003744  79.8633 280.3026 15.23025688 48160
LOPEN                   
1 60473U 24149F   25180.69142460  .00006367  00000+0  23418-3 0  9990
2 60473  97.4101 258.7950 0003347  85.3102 274.8520 15.28226558 48235
ROCK                    
1 60474U 24149G   25180.68522632  .00006327  00000+0  23236-3 0  9997
2 60474  97.4102 258.7992 0003320  84.7650 275.3968 15.28278210 48239
CONNECTA IOT-3          
1 60475U 24149H   25180.78714103  .00002785  00000+0  11978-3 0  9999
2 60475  97.4056 257.5312 0005456  73.5599 286.6237 15.23457234 48178
QUBE                    
1 60476U 24149J   25180.69092973  .00008292  00000+0  28187-3 0  9993
2 60476  97.4097 259.3950 0003961  76.4829 283.6853 15.30708387 48277
SATORO-T2               
1 60477U 24149K   25180.69006957  .00019878  00000+0  54696-3 0  9997
2 60477  97.4080 260.6554 0002265  84.2062 275.9441 15.37210569 48361
WREN-1                  
1 60478U 24149L   25180.71667019  .00003862  00000+0  13922-3 0  9996
2 60478  97.4086 259.2729 0007606  85.4264 274.7845 15.29120945 48271
TOMORROW-S1             
1 60479U 24149M   25180.89432491  .00003662  00000+0  14397-3 0  9995
2 60479  97.4070 258.5106 0004505  74.3557 285.8178 15.26299674 48245
FLOCK 4BE-18            
1 60480U 24149N   25180.89708310  .00006501  00000+0  23680-3 0  9993
2 60480  97.4062 258.9741 0006364  79.8801 280.3157 15.28526330 48278
FLOCK 4BE-7             
1 60481U 24149P   25180.77847030  .00005296  00000+0  19810-3 0  9994
2 60481  97.4095 258.8045 0005482  81.8165 278.3696 15.27741698 48244
FLOCK 4BE-4             
1 60482U 24149Q   25180.22016807  .00014168  00000+0  25641-3 0  9992
2 60482  97.4073 264.7948 0002387  54.9803 305.1672 15.49774941 48592
FLOCK 4BE-16            
1 60483U 24149R   25180.69494939  .00006043  00000+0  22035-3 0  9997
2 60483  97.4085 258.8636 0004900  82.0295 278.1500 15.28528818 48242
FLOCK 4BE-26            
1 60484U 24149S   25180.66401164  .00005310  00000+0  19659-3 0  9997
2 60484  97.4060 258.6356 0005758  82.5352 277.6541 15.28076846 48231
TOMORROW-S2             
1 60485U 24149T   25180.67570694  .00003403  00000+0  13483-3 0  9994
2 60485  97.4135 258.5938 0004893  83.5154 276.6641 15.26085185 48212
FLOCK 4BE-36            
1 60486U 24149U   25180.73867665  .00006010  00000+0  21393-3 0  9995
2 60486  97.4065 259.0189 0006534  87.2276 272.9712 15.29313210 48268
FLOCK 4BE-25            
1 60487U 24149V   25180.69430375  .00005175  00000+0  19407-3 0  9999
2 60487  97.4117 258.8456 0004665  81.3942 278.7826 15.27673456 48235
FLOCK 4BE-31            
1 60488U 24149W   25180.78729882  .00006579  00000+0  23276-3 0  9992
2 60488  97.4116 259.3248 0005294  86.7950 273.3895 15.29483938 48274
FLOCK 4BE-20            
1 60489U 24149X   25180.73477312  .00005036  00000+0  19113-3 0  9998
2 60489  97.4037 258.4705 0006106  84.5788 275.6148 15.27279209 48237
FLOCK 4BE-23            
1 60490U 24149Y   25180.77888902  .00005044  00000+0  19280-3 0  9999
2 60490  97.4109 258.7017 0005898  87.4584 272.7330 15.27042826 48235
FLOCK 4BE-15            
1 60491U 24149Z   25180.81323672  .00005014  00000+0  18491-3 0  9993
2 60491  97.4049 258.8341 0006167  85.8883 274.3061 15.28233722 48264
FLOCK 4BE-17            
1 60492U 24149AA  25180.69226420  .00006092  00000+0  22650-3 0  9992
2 60492  97.4110 258.8447 0005147  85.7603 274.4224 15.27880544 48235
NUSAT-50 (NANCY ROMAN)  
1 60493U 24149AB  25180.78002160  .00005868  00000+0  21608-3 0  9998
2 60493  97.4092 258.9495 0005850  87.8857 272.3052 15.28209997 48250
FLOCK 4BE-22            
1 60494U 24149AC  25180.68058101  .00005590  00000+0  20476-3 0  9998
2 60494  97.4058 258.7661 0006951  93.6499 266.5535 15.28401366 48240
FLOCK 4BE-34            
1 60495U 24149AD  25180.68540023  .00006065  00000+0  21578-3 0  9990
2 60495  97.4102 259.1132 0006285  97.2264 262.9691 15.29329869 48251
TYCHE                   
1 60496U 24149AE  25180.86606988  .00003032  00000+0  12925-3 0  9991
2 60496  97.4099 257.9253 0006017  96.3975 263.7948 15.23698319 48199
FLOCK 4BE-32            
1 60497U 24149AF  25180.67563870  .00005820  00000+0  21029-3 0  9995
2 60497  97.4045 258.8661 0006236  90.2218 269.9736 15.28839824 48253
NUSAT-48 (HENRIETTA LE*)
1 60498U 24149AG  25180.83894673  .00006441  00000+0  23731-3 0  9994
2 60498  97.4062 258.8872 0006619  94.7049 265.4946 15.28150305 48268
FLOCK 4BE-30            
1 60499U 24149AH  25180.68456211  .00005908  00000+0  21319-3 0  9997
2 60499  97.4123 259.1730 0005431  92.2539 267.9323 15.28880858 47631
NUSAT-49 (KLARA DAN VO*)
1 60500U 24149AJ  25180.77422956  .00005748  00000+0  21252-3 0  9997
2 60500  97.4089 258.9399 0005696  91.4245 268.7647 15.28086681 48250
FLOCK 4BE-11            
1 60501U 24149AK  25180.86210522  .00006640  00000+0  23750-3 0  9999
2 60501  97.4035 259.0627 0006642  93.4648 266.7352 15.29111510 48284
FLOCK 4BE-33            
1 60502U 24149AL  25180.22132169  .00005678  00000+0  21291-3 0  9998
2 60502  97.4052 258.1494 0006567 100.8128 259.3850 15.27620334 48163
FLOCK 4BE-10            
1 60503U 24149AM  25180.83849694  .00006407  00000+0  23675-3 0  9993
2 60503  97.4100 259.0752 0005238  96.0904 264.0933 15.28061947 48263
YAM-7                   
1 60504U 24149AN  25180.69684198  .00003923  00000+0  15762-3 0  9992
2 60504  97.4113 258.3403 0005572 101.6101 258.5763 15.25521987 48201
FLOCK 4BE-24            
1 60505U 24149AP  25180.80626744  .00006851  00000+0  24323-3 0  9995
2 60505  97.4043 259.1494 0006563 101.7458 258.4518 15.29344188 48285
LUR-1                   
1 60506U 24149AQ  25180.77987839  .00003637  00000+0  15286-3 0  9994
2 60506  97.4090 257.9942 0006216 107.5169 252.6748 15.24045547 48193
TANAGER-1               
1 60507U 24149AR  25180.68695194  .00014366  00000+0  31946-3 0  9997
2 60507  97.4039 265.0775 0009917 246.4101 113.6106 15.43716916 48652
EAGLEEYE                
1 60508U 24149AS  25180.73774121  .00010530  00000+0  30764-3 0  9998
2 60508  97.4068 260.5361 0005715 101.5242 258.6643 15.35470772 48367
FLOCK 4BE-29            
1 60509U 24149AT  25180.19462939  .00005871  00000+0  20426-3 0  9996
2 60509  97.4124 259.0640 0005144 111.0018 249.1774 15.30080053 48204
2024-149AU              
1 60510U 24149AU  25180.77418586  .00006311  00000+0  22654-3 0  9996
2 60510  97.4059 259.0939 0006103 106.4623 253.7288 15.29018672 48274
FLOCK 4BE-2             
1 60511U 24149AV  25180.77455655  .00006660  00000+0  22715-3 0  9990
2 60511  97.4129 259.8396 0005371 106.2091 253.9741 15.30672017 48302
FLOCK 4BE-13            
1 60512U 24149AW  25180.68198243  .00006252  00000+0  21923-3 0  9995
2 60512  97.4037 259.1336 0006808 100.3684 259.8324 15.29786015 48277
FLOCK 4BE-27            
1 60513U 24149AX  25180.67630094  .00004813  00000+0  18584-3 0  9990
2 60513  97.4137 258.7683 0006221 113.5385 246.6508 15.26728497 48222
FLOCK 4BE-9             
1 60514U 24149AY  25180.77754927  .00005776  00000+0  20904-3 0  9992
2 60514  97.4109 259.2951 0005334 111.8940 248.2867 15.28790524 48271
FLOCK 4BE-8             
1 60515U 24149AZ  25180.49844029  .00020328  00000+0  72720-3 0  9998
2 60515  97.4057 258.6902 0006164 112.2679 247.9215 15.28806966 48225
FLOCK 4BE-6             
1 60516U 24149BA  25180.79062193  .00005263  00000+0  19486-3 0  9997
2 60516  97.4113 259.1527 0005866 112.8878 247.2981 15.28084062 48265
FLOCK 4BE-14            
1 60517U 24149BB  25180.68192404  .00005974  00000+0  21584-3 0  9996
2 60517  97.4039 259.0282 0007263 110.9407 249.2611 15.28823205 48262
FLOCK 4BE-1             
1 60518U 24149BC  25180.73523461  .00005919  00000+0  20966-3 0  9996
2 60518  97.4098 259.4777 0006567 108.9514 251.2439 15.29482099 48289
FLOCK 4BE-28            
1 60519U 24149BD  25180.78828511  .00006336  00000+0  21765-3 0  9998
2 60519  97.4064 259.5639 0007359 110.9984 249.2044 15.30448685 48302
IPERDRONE.0             
1 60520U 24149BE  25180.76990183  .00011609  00000+0  33330-3 0  9993
2 60520  97.4087 260.8750 0006262  92.8651 267.3309 15.35990677 48380
2024-149BF              
1 60521U 24149BF  25180.86394373  .00013842  00000+0  38905-3 0  9998
2 60521  97.4102 261.2807 0006504 105.1556 255.0408 15.36609806 48418
CONNECTA IOT-2          
1 60522U 24149BG  25180.89521753  .00003883  00000+0  15408-3 0  9993
2 60522  97.4133 258.9131 0008172 116.5506 243.6571 15.25925826 48257
